CCSDS_OMM_VERS = 2.0
CREATION_DATE  = 
ORIGINATOR     = 

OBJECT_NAME    = SL-3 R/B
OBJECT_ID      = 1982-079B
CENTER_NAME    = EARTH
REF_FRAME      = TEME
TIME_SYSTEM    = UTC
MEAN_ELEMENT_THEORY = SGP/SGP4

EPOCH          = 2026-03-21T22:30:15.005952
MEAN_MOTION    = 15.24963825
ECCENTRICITY   = .00254674
INCLINATION    = 81.1490
RA_OF_ASC_NODE = 178.6164
ARG_OF_PERICENTER = 124.3435
MEAN_ANOMALY   = 236.0213

EPHEMERIS_TYPE = 0
CLASSIFICATION_TYPE = U
NORAD_CAT_ID   = 13403
ELEMENT_SET_NO = 999
REV_AT_EPOCH   = 37956
BSTAR          = .31719487E-3
MEAN_MOTION_DOT = .8006E-4
MEAN_MOTION_DDOT = 0

CCSDS_OMM_VERS = 2.0
CREATION_DATE  = 
ORIGINATOR     = 

OBJECT_NAME    = SL-14 R/B
OBJECT_ID      = 1982-092B
CENTER_NAME    = EARTH
REF_FRAME      = TEME
TIME_SYSTEM    = UTC
MEAN_ELEMENT_THEORY = SGP/SGP4

EPOCH          = 2026-03-21T15:13:21.944064
MEAN_MOTION    = 14.86676982
ECCENTRICITY   = .00187729
INCLINATION    = 82.5672
RA_OF_ASC_NODE = 130.2266
ARG_OF_PERICENTER = 260.8119
MEAN_ANOMALY   = 215.2487

EPHEMERIS_TYPE = 0
CLASSIFICATION_TYPE = U
NORAD_CAT_ID   = 13553
ELEMENT_SET_NO = 999
REV_AT_EPOCH   = 33070
BSTAR          = .46398891E-4
MEAN_MOTION_DOT = .438E-5
MEAN_MOTION_DDOT = 0

CCSDS_OMM_VERS = 2.0
CREATION_DATE  = 
ORIGINATOR     = 

OBJECT_NAME    = SL-3 R/B
OBJECT_ID      = 1983-010B
CENTER_NAME    = EARTH
REF_FRAME      = TEME
TIME_SYSTEM    = UTC
MEAN_ELEMENT_THEORY = SGP/SGP4

EPOCH          = 2026-03-21T23:44:25.755936
MEAN_MOTION    = 15.46764879
ECCENTRICITY   = .00167713
INCLINATION    = 81.1058
RA_OF_ASC_NODE = 347.1659
ARG_OF_PERICENTER = 10.1236
MEAN_ANOMALY   = 350.0343

EPHEMERIS_TYPE = 0
CLASSIFICATION_TYPE = U
NORAD_CAT_ID   = 13819
ELEMENT_SET_NO = 999
REV_AT_EPOCH   = 35984
BSTAR          = .40655021E-3
MEAN_MOTION_DOT = .2052E-3
MEAN_MOTION_DDOT = 0

CCSDS_OMM_VERS = 2.0
CREATION_DATE  = 
ORIGINATOR     = 

OBJECT_NAME    = SL-3 R/B
OBJECT_ID      = 1983-075B
CENTER_NAME    = EARTH
REF_FRAME      = TEME
TIME_SYSTEM    = UTC
MEAN_ELEMENT_THEORY = SGP/SGP4

EPOCH          = 2026-03-21T21:56:28.549248
MEAN_MOTION    = 15.38693265
ECCENTRICITY   = .00214688
INCLINATION    = 97.6142
RA_OF_ASC_NODE = 85.9567
ARG_OF_PERICENTER = 180.5651
MEAN_ANOMALY   = 179.5573

EPHEMERIS_TYPE = 0
CLASSIFICATION_TYPE = U
NORAD_CAT_ID   = 14208
ELEMENT_SET_NO = 999
REV_AT_EPOCH   = 33203
BSTAR          = .37474757E-3
MEAN_MOTION_DOT = .14361E-3
MEAN_MOTION_DDOT = 0

CCSDS_OMM_VERS = 2.0
CREATION_DATE  = 
ORIGINATOR     = 

OBJECT_NAME    = COSMOS 1536
OBJECT_ID      = 1984-013A
CENTER_NAME    = EARTH
REF_FRAME      = TEME
TIME_SYSTEM    = UTC
MEAN_ELEMENT_THEORY = SGP/SGP4

EPOCH          = 2026-03-21T12:56:31.781472
MEAN_MOTION    = 15.23973546
ECCENTRICITY   = .00126955
INCLINATION    = 82.5413
RA_OF_ASC_NODE = 96.0666
ARG_OF_PERICENTER = 236.1827
MEAN_ANOMALY   = 123.8202

EPHEMERIS_TYPE = 0
CLASSIFICATION_TYPE = U
NORAD_CAT_ID   = 14699
ELEMENT_SET_NO = 999
REV_AT_EPOCH   = 27442
BSTAR          = .32108158E-3
MEAN_MOTION_DOT = .7818E-4
MEAN_MOTION_DDOT = 0

CCSDS_OMM_VERS = 2.0
CREATION_DATE  = 
ORIGINATOR     = 

OBJECT_NAME    = SL-14 R/B
OBJECT_ID      = 1984-027B
CENTER_NAME    = EARTH
REF_FRAME      = TEME
TIME_SYSTEM    = UTC
MEAN_ELEMENT_THEORY = SGP/SGP4

EPOCH          = 2026-03-21T21:08:52.437408
MEAN_MOTION    = 14.85988730
ECCENTRICITY   = .00165931
INCLINATION    = 82.5401
RA_OF_ASC_NODE = 233.5766
ARG_OF_PERICENTER = 295.2030
MEAN_ANOMALY   = 64.7466

EPHEMERIS_TYPE = 0
CLASSIFICATION_TYPE = U
NORAD_CAT_ID   = 14820
ELEMENT_SET_NO = 999
REV_AT_EPOCH   = 24944
BSTAR          = .55350174E-4
MEAN_MOTION_DOT = .508E-5
MEAN_MOTION_DDOT = 0

CCSDS_OMM_VERS = 2.0
CREATION_DATE  = 
ORIGINATOR     = 

OBJECT_NAME    = SL-8 R/B
OBJECT_ID      = 1985-006B
CENTER_NAME    = EARTH
REF_FRAME      = TEME
TIME_SYSTEM    = UTC
MEAN_ELEMENT_THEORY = SGP/SGP4

EPOCH          = 2026-03-21T20:14:15.414144
MEAN_MOTION    = 14.37792128
ECCENTRICITY   = .00179468
INCLINATION    = 74.0439
RA_OF_ASC_NODE = 238.7825
ARG_OF_PERICENTER = 153.2427
MEAN_ANOMALY   = 313.8339

EPHEMERIS_TYPE = 0
CLASSIFICATION_TYPE = U
NORAD_CAT_ID   = 15483
ELEMENT_SET_NO = 999
REV_AT_EPOCH   = 15577
BSTAR          = .12480411E-3
MEAN_MOTION_DOT = .35E-5
MEAN_MOTION_DDOT = 0

CCSDS_OMM_VERS = 2.0
CREATION_DATE  = 
ORIGINATOR     = 

OBJECT_NAME    = SL-12 R/B(2)
OBJECT_ID      = 1985-042D
CENTER_NAME    = EARTH
REF_FRAME      = TEME
TIME_SYSTEM    = UTC
MEAN_ELEMENT_THEORY = SGP/SGP4

EPOCH          = 2026-03-21T16:11:32.345952
MEAN_MOTION    = 14.21985563
ECCENTRICITY   = .00329011
INCLINATION    = 71.1072
RA_OF_ASC_NODE = 62.4053
ARG_OF_PERICENTER = 108.2923
MEAN_ANOMALY   = 64.0941

EPHEMERIS_TYPE = 0
CLASSIFICATION_TYPE = U
NORAD_CAT_ID   = 15772
ELEMENT_SET_NO = 999
REV_AT_EPOCH   = 11609
BSTAR          = .57145719E-4
MEAN_MOTION_DOT = .8E-6
MEAN_MOTION_DDOT = 0

CCSDS_OMM_VERS = 2.0
CREATION_DATE  = 
ORIGINATOR     = 

OBJECT_NAME    = SL-14 R/B
OBJECT_ID      = 1985-069B
CENTER_NAME    = EARTH
REF_FRAME      = TEME
TIME_SYSTEM    = UTC
MEAN_ELEMENT_THEORY = SGP/SGP4

EPOCH          = 2026-03-21T20:41:37.760640
MEAN_MOTION    = 14.86446133
ECCENTRICITY   = .00195545
INCLINATION    = 82.5301
RA_OF_ASC_NODE = 13.4894
ARG_OF_PERICENTER = 147.9450
MEAN_ANOMALY   = 212.2961

EPHEMERIS_TYPE = 0
CLASSIFICATION_TYPE = U
NORAD_CAT_ID   = 15945
ELEMENT_SET_NO = 999
REV_AT_EPOCH   = 17464
BSTAR          = .54127642E-4
MEAN_MOTION_DOT = .504E-5
MEAN_MOTION_DDOT = 0

CCSDS_OMM_VERS = 2.0
CREATION_DATE  = 
ORIGINATOR     = 

OBJECT_NAME    = SL-16 R/B
OBJECT_ID      = 1985-097B
CENTER_NAME    = EARTH
REF_FRAME      = TEME
TIME_SYSTEM    = UTC
MEAN_ELEMENT_THEORY = SGP/SGP4

EPOCH          = 2026-03-21T20:54:50.584320
MEAN_MOTION    = 14.16601397
ECCENTRICITY   = .00095717
INCLINATION    = 71.0013
RA_OF_ASC_NODE = 114.9080
ARG_OF_PERICENTER = 245.2094
MEAN_ANOMALY   = 287.4247

EPHEMERIS_TYPE = 0
CLASSIFICATION_TYPE = U
NORAD_CAT_ID   = 16182
ELEMENT_SET_NO = 999
REV_AT_EPOCH   = 8895
BSTAR          = .15343638E-3
MEAN_MOTION_DOT = .258E-5
MEAN_MOTION_DDOT = 0

CCSDS_OMM_VERS = 2.0
CREATION_DATE  = 
ORIGINATOR     = 

OBJECT_NAME    = SL-14 R/B
OBJECT_ID      = 1986-006B
CENTER_NAME    = EARTH
REF_FRAME      = TEME
TIME_SYSTEM    = UTC
MEAN_ELEMENT_THEORY = SGP/SGP4

EPOCH          = 2026-03-21T21:40:59.965248
MEAN_MOTION    = 14.86832514
ECCENTRICITY   = .00753412
INCLINATION    = 82.5239
RA_OF_ASC_NODE = 248.2386
ARG_OF_PERICENTER = 231.5421
MEAN_ANOMALY   = 127.9020

EPHEMERIS_TYPE = 0
CLASSIFICATION_TYPE = U
NORAD_CAT_ID   = 16496
ELEMENT_SET_NO = 999
REV_AT_EPOCH   = 15102
BSTAR          = .7987954E-4
MEAN_MOTION_DOT = .776E-5
MEAN_MOTION_DDOT = 0

CCSDS_OMM_VERS = 2.0
CREATION_DATE  = 
ORIGINATOR     = 

OBJECT_NAME    = COSMOS 1743
OBJECT_ID      = 1986-034A
CENTER_NAME    = EARTH
REF_FRAME      = TEME
TIME_SYSTEM    = UTC
MEAN_ELEMENT_THEORY = SGP/SGP4

EPOCH          = 2026-03-21T21:38:08.373984
MEAN_MOTION    = 15.59481898
ECCENTRICITY   = .00028434
INCLINATION    = 82.5301
RA_OF_ASC_NODE = 61.0033
ARG_OF_PERICENTER = 196.0719
MEAN_ANOMALY   = 164.0448

EPHEMERIS_TYPE = 0
CLASSIFICATION_TYPE = U
NORAD_CAT_ID   = 16719
ELEMENT_SET_NO = 999
REV_AT_EPOCH   = 18215
BSTAR          = .64078837E-3
MEAN_MOTION_DOT = .51E-3
MEAN_MOTION_DDOT = 0

